{
  "type": "FeatureCollection",
  "features": [
    {
      "type": "Feature",
      "properties": {
        "norad_id": 37704,
        "name": "FENGYUN 1C DEB",
        "group": "fengyun-1c-debris",
        "lat": 65.01715097725865,
        "lon": 9.060580184395997,
        "alt_km": 998.2902916061093,
        "timestamp": "2025-12-02T06:27:53.302892+00:00",
        "meta_object_name": "FENGYUN 1C DEB",
        "meta_object_id": "1999-025ELV",
        "meta_epoch": "2025-11-13T18:53:12.256224",
        "meta_mean_motion": 13.70394507,
        "meta_eccentricity": 0.02407203,
        "meta_inclination": 98.3154,
        "meta_ra_of_asc_node": 154.7598,
        "meta_arg_of_pericenter": 256.7939,
        "meta_mean_anomaly": 163.8462,
        "meta_ephemeris_type": 0,
        "meta_classification_type": "U",
        "meta_norad_cat_id": 37704,
        "meta_element_set_no": 999,
        "meta_rev_at_epoch": 61968,
        "meta_bstar": 0.0028357246,
        "meta_mean_motion_dot": 3.039e-05,
        "meta_mean_motion_ddot": 0,
        "tle_line1": "1 37704U 99025ELV 25317.78694741  .00003039  00000+0  28357-2 0  9991",
        "tle_line2": "2 37704  98.3154 154.7598 0240720 256.7939 163.8462 13.70394507619687"
      },
      "geometry": {
        "type": "Point",
        "coordinates": [
          9.060580184395997,
          65.01715097725865
        ]
      }
    },
    {
      "type": "Feature",
      "properties": {
        "norad_id": 37707,
        "name": "FENGYUN 1C DEB",
        "group": "fengyun-1c-debris",
        "lat": -41.4925776268934,
        "lon": 148.73114543612255,
        "alt_km": 810.6134062395377,
        "timestamp": "2025-12-02T06:27:53.302902+00:00",
        "meta_object_name": "FENGYUN 1C DEB",
        "meta_object_id": "1999-025ELY",
        "meta_epoch": "2025-11-27T05:20:57.252768",
        "meta_mean_motion": 14.56289671,
        "meta_eccentricity": 0.01442237,
        "meta_inclination": 100.2205,
        "meta_ra_of_asc_node": 331.7391,
        "meta_arg_of_pericenter": 70.8606,
        "meta_mean_anomaly": 348.4248,
        "meta_ephemeris_type": 0,
        "meta_classification_type": "U",
        "meta_norad_cat_id": 37707,
        "meta_element_set_no": 999,
        "meta_rev_at_epoch": 85340,
        "meta_bstar": 0.0006683793,
        "meta_mean_motion_dot": 3.335e-05,
        "meta_mean_motion_ddot": 0,
        "tle_line1": "1 37707U 99025ELY 25331.22288487  .00003335  00000+0  66838-3 0  9991",
        "tle_line2": "2 37707 100.2205 331.7391 0144223  70.8606 348.4248 14.56289671853408"
      },
      "geometry": {
        "type": "Point",
        "coordinates": [
          148.73114543612255,
          -41.4925776268934
        ]
      }
    },
    {
      "type": "Feature",
      "properties": {
        "norad_id": 37712,
        "name": "FENGYUN 1C DEB",
        "group": "fengyun-1c-debris",
        "lat": 72.38657793973815,
        "lon": -35.691363356940464,
        "alt_km": 753.7901716620108,
        "timestamp": "2025-12-02T06:27:53.302912+00:00",
        "meta_object_name": "FENGYUN 1C DEB",
        "meta_object_id": "1999-025EMD",
        "meta_epoch": "2025-11-27T15:41:44.019744",
        "meta_mean_motion": 14.36373933,
        "meta_eccentricity": 0.00799447,
        "meta_inclination": 98.8184,
        "meta_ra_of_asc_node": 110.3124,
        "meta_arg_of_pericenter": 38.1802,
        "meta_mean_anomaly": 333.7876,
        "meta_ephemeris_type": 0,
        "meta_classification_type": "U",
        "meta_norad_cat_id": 37712,
        "meta_element_set_no": 999,
        "meta_rev_at_epoch": 63744,
        "meta_bstar": 0.00047161724,
        "meta_mean_motion_dot": 1.385e-05,
        "meta_mean_motion_ddot": 0,
        "tle_line1": "1 37712U 99025EMD 25331.65398171  .00001385  00000+0  47162-3 0  9998",
        "tle_line2": "2 37712  98.8184 110.3124 0079944  38.1802 333.7876 14.36373933637440"
      },
      "geometry": {
        "type": "Point",
        "coordinates": [
          -35.691363356940464,
          72.38657793973815
        ]
      }
    },
    {
      "type": "Feature",
      "properties": {
        "norad_id": 37714,
        "name": "FENGYUN 1C DEB",
        "group": "fengyun-1c-debris",
        "lat": 17.30745159638283,
        "lon": -89.49666032405328,
        "alt_km": 761.1442236060138,
        "timestamp": "2025-12-02T06:27:53.302922+00:00",
        "meta_object_name": "FENGYUN 1C DEB",
        "meta_object_id": "1999-025EMF",
        "meta_epoch": "2025-12-01T06:14:12.602976",
        "meta_mean_motion": 14.32022386,
        "meta_eccentricity": 0.0049613,
        "meta_inclination": 98.8928,
        "meta_ra_of_asc_node": 86.6726,
        "meta_arg_of_pericenter": 118.0452,
        "meta_mean_anomaly": 242.5761,
        "meta_ephemeris_type": 0,
        "meta_classification_type": "U",
        "meta_norad_cat_id": 37714,
        "meta_element_set_no": 999,
        "meta_rev_at_epoch": 57345,
        "meta_bstar": 0.0027481,
        "meta_mean_motion_dot": 7.44e-05,
        "meta_mean_motion_ddot": 0,
        "tle_line1": "1 37714U 99025EMF 25335.25986809  .00007440  00000+0  27481-2 0  9990",
        "tle_line2": "2 37714  98.8928  86.6726 0049613 118.0452 242.5761 14.32022386573459"
      },
      "geometry": {
        "type": "Point",
        "coordinates": [
          -89.49666032405328,
          17.30745159638283
        ]
      }
    },
    {
      "type": "Feature",
      "properties": {
        "norad_id": 37715,
        "name": "FENGYUN 1C DEB",
        "group": "fengyun-1c-debris",
        "lat": -81.01553356797744,
        "lon": 78.4187544462799,
        "alt_km": 968.6381372161331,
        "timestamp": "2025-12-02T06:27:53.302932+00:00",
        "meta_object_name": "FENGYUN 1C DEB",
        "meta_object_id": "1999-025EMG",
        "meta_epoch": "2025-12-01T19:42:20.593152",
        "meta_mean_motion": 13.95387291,
        "meta_eccentricity": 0.0114412,
        "meta_inclination": 98.9565,
        "meta_ra_of_asc_node": 343.8958,
        "meta_arg_of_pericenter": 141.938,
        "meta_mean_anomaly": 35.66,
        "meta_ephemeris_type": 0,
        "meta_classification_type": "U",
        "meta_norad_cat_id": 37715,
        "meta_element_set_no": 999,
        "meta_rev_at_epoch": 57651,
        "meta_bstar": 0.00039102,
        "meta_mean_motion_dot": 5.18e-06,
        "meta_mean_motion_ddot": 0,
        "tle_line1": "1 37715U 99025EMG 25335.82107168  .00000518  00000+0  39102-3 0  9990",
        "tle_line2": "2 37715  98.9565 343.8958 0114412 141.9380  35.6600 13.95387291576518"
      },
      "geometry": {
        "type": "Point",
        "coordinates": [
          78.4187544462799,
          -81.01553356797744
        ]
      }
    },
    {
      "type": "Feature",
      "properties": {
        "norad_id": 37717,
        "name": "FENGYUN 1C DEB",
        "group": "fengyun-1c-debris",
        "lat": -54.46292741039923,
        "lon": 98.47684737366168,
        "alt_km": 602.2499989739854,
        "timestamp": "2025-12-02T06:27:53.302942+00:00",
        "meta_object_name": "FENGYUN 1C DEB",
        "meta_object_id": "1999-025EMJ",
        "meta_epoch": "2025-11-28T15:20:52.761120",
        "meta_mean_motion": 14.92855591,
        "meta_eccentricity": 0.00577735,
        "meta_inclination": 98.7244,
        "meta_ra_of_asc_node": 286.8705,
        "meta_arg_of_pericenter": 147.0493,
        "meta_mean_anomaly": 30.278,
        "meta_ephemeris_type": 0,
        "meta_classification_type": "U",
        "meta_norad_cat_id": 37717,
        "meta_element_set_no": 999,
        "meta_rev_at_epoch": 89187,
        "meta_bstar": 0.0023279704,
        "meta_mean_motion_dot": 0.00024912,
        "meta_mean_motion_ddot": 0,
        "tle_line1": "1 37717U 99025EMJ 25332.63949955  .00024912  00000+0  23280-2 0  9999",
        "tle_line2": "2 37717  98.7244 286.8705 0057773 147.0493  30.2780 14.92855591891876"
      },
      "geometry": {
        "type": "Point",
        "coordinates": [
          98.47684737366168,
          -54.46292741039923
        ]
      }
    },
    {
      "type": "Feature",
      "properties": {
        "norad_id": 37902,
        "name": "FENGYUN 1C DEB",
        "group": "fengyun-1c-debris",
        "lat": 47.2357354553184,
        "lon": -171.71427885413726,
        "alt_km": 985.5051031946196,
        "timestamp": "2025-12-02T06:27:53.302952+00:00",
        "meta_object_name": "FENGYUN 1C DEB",
        "meta_object_id": "1999-025ENB",
        "meta_epoch": "2025-12-01T14:15:39.156480",
        "meta_mean_motion": 13.52598401,
        "meta_eccentricity": 0.03241848,
        "meta_inclination": 98.684,
        "meta_ra_of_asc_node": 197.2045,
        "meta_arg_of_pericenter": 335.5889,
        "meta_mean_anomaly": 23.0185,
        "meta_ephemeris_type": 0,
        "meta_classification_type": "U",
        "meta_norad_cat_id": 37902,
        "meta_element_set_no": 999,
        "meta_rev_at_epoch": 62826,
        "meta_bstar": 0.0025054803,
        "meta_mean_motion_dot": 2.275e-05,
        "meta_mean_motion_ddot": 0,
        "tle_line1": "1 37902U 99025ENB 25335.59420320  .00002275  00000+0  25055-2 0  9993",
        "tle_line2": "2 37902  98.6840 197.2045 0324184 335.5889  23.0185 13.52598401628260"
      },
      "geometry": {
        "type": "Point",
        "coordinates": [
          -171.71427885413726,
          47.2357354553184
        ]
      }
    }
  ]
}